SL-14 R/B               
1 20466U 90010B   24131.20199541  .00000858  00000+0  10399-3 0  9995
2 20466  82.5032 174.7077 0019705 346.2337  13.8337 14.82393300850464
SL-14 R/B               
1 20511U 90018B   24130.71861305  .00000886  00000+0  11117-3 0  9993
2 20511  82.5191 127.9054 0017926 128.4420 231.8406 14.80995855823529
HST                     
1 20580U 90037B   24130.71227376  .00007618  00000+0  36385-3 0  9998
2 20580  28.4684 242.8122 0002264 349.8512  10.2035 15.17160579671182
SL-16 R/B               
1 20625U 90046B   24131.05809753  .00000126  00000+0  90060-4 0  9999
2 20625  70.9985 261.9674 0016226 243.9630 115.9822 14.14824939754069
COSMOS 2084             
1 20663U 90055A   24131.19737721  .00006714  00000+0  50437-3 0  9993
2 20663  62.7914  84.7373 0115944 116.4905 244.8139 14.98260702835882
SL-6 R/B(2)             
1 20666U 90055D   24131.03168843  .00005277  00000+0  42615-3 0  9994
2 20666  62.7857 359.0824 0091733 139.1387 221.6636 14.97790146837285
SL-8 R/B                
1 20775U 90078B   24130.71499140  .00024992  00000+0  99741-3 0  9998
2 20775  82.9136 119.3849 0478243  56.9374 307.6815 14.58702769710714
SL-8 R/B                
1 21088U 91006B   24131.21360003  .00000260  00000+0  24549-3 0  9995
2 21088  82.9397 307.2901 0023863 106.6886  67.1329 13.77336847672314
OKEAN-3                 
1 21397U 91039A   24130.83219666  .00006168  00000+0  51940-3 0  9997
2 21397  82.5190 261.7205 0017436  80.6762 279.6432 14.97948122764650
COSMOS 2151             
1 21422U 91042A   24131.17420469  .00003110  00000+0  27725-3 0  9991
2 21422  82.5007   6.3741 0014184 147.4026 212.8074 14.95623890784255
SL-14 R/B               
1 21423U 91042B   24130.70715267  .00000767  00000+0  96561-4 0  9993
2 21423  82.4908 127.0771 0015709 279.1492  80.7944 14.80725308754035
ERS-1                   
1 21574U 91050A   24130.95583800  .00000700  00000+0  24257-3 0  9991
2 21574  98.7771 121.7915 0033097  26.9666 333.3231 14.38497977719557
ARIANE 40 R/B           
1 21610U 91050F   24131.19424278  .00000876  00000+0  28104-3 0  9991
2 21610  98.2916 194.2057 0001980 313.3271  46.7753 14.41817126722898
INTERCOSMOS 25          
1 21819U 91086A   24130.82459626  .00003894  00000+0  76742-3 0  9999
2 21819  82.6084 353.4112 1501900 115.3662 261.0364 12.08644930415784
SL-8 R/B                
1 21876U 92008B   24130.84025939  .00000146  00000+0  13453-3 0  9992
2 21876  82.9297  45.1233 0034108 200.6094 221.4653 13.75821502617447
SL-8 R/B                
1 21938U 92020B   24130.90753389  .00000209  00000+0  20122-3 0  9990
2 21938  82.9275 290.4302 0029219   7.2252 102.8746 13.75412014609190
COSMOS 2219             
1 22219U 92076A   24130.92894195 -.00000140  00000+0 -48945-4 0  9997
2 22219  71.0611 335.8717 0016680 148.8486 211.3629 14.13856803623844
SL-16 R/B               
1 22220U 92076B   24130.52053796 -.00000162  00000+0 -57079-4 0  9991
2 22220  70.9983 157.7701 0011616  25.5333  82.0858 14.16650424627054
COSMOS 2221             
1 22236U 92080A   24131.22489225  .00003235  00000+0  31995-3 0  9991
2 22236  82.5079 197.1532 0014025 271.6987  88.2626 14.91550465702021
SL-16 R/B               
1 22285U 92093B   24130.94897896  .00000289  00000+0  17313-3 0  9998
2 22285  71.0214 327.9443 0006274 252.9854 107.0582 14.15247544618535
COSMOS 2228             
1 22286U 92094A   24130.90938248  .00003626  00000+0  35391-3 0  9997
2 22286  82.5177 155.3078 0020417  32.8766 327.3719 14.92013706676146
SL-16 R/B               
1 22566U 93016B   24131.13785289 -.00000124  00000+0 -39263-4 0  9999
2 22566  71.0072 179.1640 0012816 262.8841  97.0824 14.15131046607590
COSMOS 2242             
1 22626U 93024A   24131.20367036  .00003372  00000+0  33184-3 0  9990
2 22626  82.5213 183.8338 0018378  33.5749 326.6631 14.91700434680872
SL-16 R/B               
1 22803U 93059B   24130.89035305  .00000193  00000+0  11987-3 0  9995
2 22803  70.9913 341.2944 0016219 156.2733 203.9142 14.17022296584786
ARIANE 40 R/B           
1 22830U 93061H   24130.78245723  .00000501  00000+0  20261-3 0  9991
2 22830  98.5726 198.8596 0012068 101.1125 259.1416 14.32080586598331
COSMOS 2278             
1 23087U 94023A   24130.70507034  .00000147  00000+0  10179-3 0  9996
2 23087  71.0500 134.4635 0009912 318.8799  41.1576 14.14074733550229
SL-16 R/B               
1 23088U 94023B   24130.93638872 -.00000083  00000+0 -18255-4 0  9992
2 23088  71.0013  35.1685 0005360 247.6183 112.4372 14.14836522551498
SL-16 R/B               
1 23343U 94074B   24130.87873157  .00001089  00000+0  15770-3 0  9995
2 23343  97.7908 175.1011 0005618 226.9226 185.2108 14.78015122588403
SL-16 R/B               
1 23405U 94077B   24130.89500403  .00000000  00000+0  24485-4 0  9996
2 23405  70.9833 319.3327 0000514 152.1042 208.0108 14.15387896521592
ARIANE 40+ R/B          
1 23561U 95021B   24130.81808400  .00000596  00000+0  20819-3 0  9995
2 23561  98.5289 197.4981 0006461 353.8921 116.9233 14.38815620523022
SL-16 R/B               
1 23705U 95058B   24130.72939870  .00000144  00000+0  98216-4 0  9997
2 23705  71.0193 144.5671 0010639  53.1997 307.0101 14.15307928473197
SL-16 R/B               
1 24298U 96051B   24130.48742988 -.00000224  00000+0 -94863-4 0  9999
2 24298  70.8052 150.5020 0014895  35.7673 324.4441 14.12484297427153
ORBVIEW 2 (SEASTAR)     
1 24883U 97037A   24130.92402152  .00000787  00000+0  29533-3 0  9992
2 24883  98.7695 270.2422 0001668 200.4631 159.6487 14.34495852412559
SL-16 R/B               
1 25400U 98043G   24130.80329284  .00000160  00000+0  85977-4 0  9997
2 25400  98.7431  71.9573 0010331 150.3539 209.8228 14.25738754343660
SL-16 R/B               
1 25407U 98045B   24130.49858103  .00000091  00000+0  70204-4 0  9998
2 25407  71.0095 148.6839 0009047 313.3727  46.6642 14.15996439332363
ISS (ZARYA)             
1 25544U 98067A   24131.34361111  .00016150  00000+0  27956-3 0  9995
2 25544  51.6380 143.0116 0003517 153.6886  32.7265 15.51076013452672
CZ-4B R/B               
1 25732U 99025C   24131.16238112  .00000253  00000+0  14375-3 0  9991
2 25732  98.7546 176.8182 0038374 104.5783 325.3339 14.17952179293554
OKEAN-O                 
1 25860U 99039A   24131.11394186  .00001740  00000+0  24633-3 0  9997
2 25860  98.0389 183.5417 0001311  70.7422 289.3930 14.78352996335624
SL-16 R/B               
1 25861U 99039B   24130.69491373  .00001071  00000+0  14857-3 0  9990
2 25861  98.0919 176.3713 0013858 262.4769  97.4868 14.80010733337843
DELTA 2 R/B             
1 25876U 99041E   24130.27705231  .00001097  00000+0  22008-3 0  9999
2 25876  51.7631  88.1358 0517935 177.7231 182.6236 14.08075378268573
HELIOS 1B               
1 25977U 99064A   24131.15274551  .00001972  00000+0  24219-3 0  9998
2 25977  98.2499   1.5255 0002564  81.9499 278.2005 14.84267262317274
TERRA                   
1 25994U 99068A   24131.18249150  .00001161  00000+0  25277-3 0  9996
2 25994  98.0500 195.7840 0003306 112.0051 305.6045 14.59722304297625
SL-16 R/B               
1 26070U 00006B   24131.18926054  .00000208  00000+0  13021-3 0  9996
2 26070  71.0035  63.2809 0014663 123.7132 236.5391 14.15631772253927
TITAN 4B R/B            
1 26474U 00047B   24130.37756957  .00005391  00000+0  41469-3 0  9997
2 26474  67.9909 112.1997 0044160  68.2756 292.3082 15.01682189292138
ENVISAT                 
1 27386U 02009A   24131.17758458  .00000341  00000+0  12519-3 0  9991
2 27386  98.2798  93.5936 0001189  86.8405 284.8868 14.38561438163115
IDEFIX & ARIANE 42P R/B 
1 27422U 02021B   24130.81017089  .00000588  00000+0  24427-3 0  9998
2 27422  98.5260  69.2667 0012189   3.2208 356.9051 14.30078178148383
AQUA                    
1 27424U 02022A   24131.19226358  .00002151  00000+0  46602-3 0  9991
2 27424  98.3284  80.4276 0000922 105.9966   7.2522 14.59214052171179
CZ-4B R/B               
1 27432U 02024C   24130.96142236  .00000161  00000+0  10628-3 0  9996
2 27432  98.9784 173.0923 0051283 118.7834 313.3035 14.14310119134709
MIDORI II (ADEOS-II)    
1 27597U 02056A   24131.14033114  .00000692  00000+0  29506-3 0  9992
2 27597  98.6898  77.9878 0001782 112.9299 247.2071 14.28317797114803
H-2A R/B                
1 27601U 02056E   24130.95749292  .00000870  00000+0  32513-3 0  9997
2 27601  98.2283 109.9281 0071282 356.6309  66.5265 14.32774518118318
CZ-4B R/B               
1 28059U 03049C   24131.12484697  .00000965  00000+0  23822-3 0  9991
2 28059  98.6083  92.4307 0050322 111.7198 248.9365 14.53714246 89398
CZ-2C R/B               
1 28222U 04012C   24130.92330108  .00016538  00000+0  65404-3 0  9993
2 28222  97.8049 142.2399 0035305 180.4492 179.6719 15.24968188101261
SL-16 R/B               
1 28353U 04021B   24130.62052677 -.00000071  00000+0 -12153-4 0  9998
2 28353  71.0016 196.3980 0006705 315.4220  44.6363 14.14409631 28222
CZ-4B R/B               
1 28415U 04035C   24131.10487485  .00011308  00000+0  59335-3 0  9990
2 28415  97.4262 165.6192 0044266 153.7302 206.6189 15.15039389 78196
CZ-2C R/B               
1 28480U 04046B   24131.13864370  .00000674  00000+0  26874-3 0  9995
2 28480  98.1602  77.9149 0140168 332.3804  26.9980 14.26342895 13170
ARIANE 5 R/B            
1 28499U 04049H   24130.92648974  .00001595  00000+0  19318-3 0  9992
2 28499  98.1786 268.0171 0088219 357.5865   2.4909 14.82442252 46609
CZ-2D R/B               
1 28738U 05024B   24130.96346940  .00016310  00000+0  65381-3 0  9996
2 28738  97.3635 130.1036 0006600 279.0901  80.9590 15.25074666 36830
SUZAKU (ASTRO-EII)      
1 28773U 05025A   24131.07562576  .00038975  00000+0  84682-3 0  9990
2 28773  31.3887  37.6780 0003438 281.6875  78.3394 15.43120377 41119
ALOS (DAICHI)           
1 28931U 06002A   24131.13261525  .00003950  00000+0  73642-3 0  9998
2 28931  98.0347  85.0155 0000692  83.8645 276.2637 14.65566855975770
